<?xml version="1.0" encoding="UTF-8"?>
<kml xmlns="http://www.opengis.net/kml/2.2">
  <Document>
    <name>국토개발계획 투자포인트 추적</name>
    <Placemark>
      <name>남양주왕숙 공공주택지구</name>
      <description>사업유형: 신도시(공공주택지구)
근거법: 공공주택특별법
시도: 경기
시군구: 남양주시
읍면동: 진접읍·진건읍 일원
현재단계: 조성공사
단계상세: 주택 블록별 공정률 0~1%대(2025.11 기준) 2026 본격 착공
지연여부: Y(입주 2026→2028상 연기)
예타상태: 해당없음(공공주택특별법 지구지정, 예타 별도 절차)
대략가격대: 해당없음(공공분양, 매매시장 아님)
출처URL: https://www.molit.go.kr/policy/capital/cap_e_03.jsp
최근확인일: 2026-07-05
비고: 3기 신도시 최대 규모</description>
      <Point><coordinates>127.22,37.64,0</coordinates></Point>
    </Placemark>
    <Placemark>
      <name>하남교산 공공주택지구</name>
      <description>사업유형: 신도시(공공주택지구)
근거법: 공공주택특별법
시도: 경기
시군구: 하남시
읍면동: 교산동 일원
현재단계: 조성공사
단계상세: A-2BL 공정률 0%(2025.11) 2026 착공 예정
지연여부: Y(입주 2025→2027하 연기)
예타상태: 해당없음(공공주택특별법 지구지정, 예타 별도 절차)
대략가격대: 해당없음(공공분양, 매매시장 아님)
출처URL: https://www.molit.go.kr/policy/capital/cap_e_03.jsp
최근확인일: 2026-07-05
비고: GTX-D 연계 논의</description>
      <Point><coordinates>127.19,37.52,0</coordinates></Point>
    </Placemark>
    <Placemark>
      <name>인천계양 공공주택지구</name>
      <description>사업유형: 신도시(공공주택지구)
근거법: 공공주택특별법
시도: 인천
시군구: 계양구
읍면동: 동양동·박촌동 일원
현재단계: 본청약
단계상세: A2·A3블록 3기 신도시 최초 본청약 2026.12 입주 예정
지연여부: Y(입주 2025→2026 연기)
예타상태: 해당없음(공공주택특별법 지구지정, 예타 별도 절차)
대략가격대: 해당없음(공공분양, 매매시장 아님)
출처URL: https://magazine.hankyung.com/money/article/202602237018c
최근확인일: 2026-07-05
비고: 3기 중 진행 최선두</description>
      <Point><coordinates>126.73,37.57,0</coordinates></Point>
    </Placemark>
    <Placemark>
      <name>고양창릉 공공주택지구</name>
      <description>사업유형: 신도시(공공주택지구)
근거법: 공공주택특별법
시도: 경기
시군구: 고양시 덕양구
읍면동: 창릉동·원흥동 일원
현재단계: 착공(주택)
단계상세: A-4BL 8.3% 등 공정률 한자릿수 2026.3·6 본청약
지연여부: Y(입주 2025→2028상 연기)
예타상태: 해당없음(공공주택특별법 지구지정, 예타 별도 절차)
대략가격대: 해당없음(공공분양, 매매시장 아님)
출처URL: https://magazine.hankyung.com/money/article/202602237018c
최근확인일: 2026-07-05
비고: GTX-A 창릉역 2030 개통 예정</description>
      <Point><coordinates>126.89,37.63,0</coordinates></Point>
    </Placemark>
    <Placemark>
      <name>부천대장 공공주택지구</name>
      <description>사업유형: 신도시(공공주택지구)
근거법: 공공주택특별법
시도: 경기
시군구: 부천시
읍면동: 대장동·오정동 일원
현재단계: 착공(주택)
단계상세: 공정률 5%대(2025.11) SK하이닉스 입주 예정
지연여부: Y(입주 2026→2027하 연기)
예타상태: 해당없음(공공주택특별법 지구지정, 예타 별도 절차)
대략가격대: 해당없음(공공분양, 매매시장 아님)
출처URL: https://www.mt.co.kr/estate/2025/11/28/2025112714140542442
최근확인일: 2026-07-05
비고: 대장~홍대선 착공</description>
      <Point><coordinates>126.77,37.53,0</coordinates></Point>
    </Placemark>
    <Placemark>
      <name>광명시흥 공공주택지구</name>
      <description>사업유형: 신도시(공공주택지구)
근거법: 공공주택특별법
시도: 경기
시군구: 광명시·시흥시
읍면동: 광명동·과림동 일원
현재단계: 지구계획승인
단계상세: 토지보상 진행 단계 상세 확인 필요
지연여부: N
예타상태: 해당없음(공공주택특별법 지구지정, 예타 별도 절차)
대략가격대: 해당없음(공공분양, 매매시장 아님)
출처URL: https://namu.wiki/w/3기 신도시
최근확인일: 2026-07-05
비고: 6번째 3기 신도시</description>
      <Point><coordinates>126.86,37.44,0</coordinates></Point>
    </Placemark>
    <Placemark>
      <name>의왕군포안산 공공주택지구</name>
      <description>사업유형: 신도시(공공주택지구)
근거법: 공공주택특별법
시도: 경기
시군구: 의왕시·군포시·안산시
현재단계: 지구지정
단계상세: 상세 확인 필요
지연여부: N
예타상태: 해당없음(공공주택특별법 지구지정, 예타 별도 절차)
대략가격대: 해당없음(공공분양, 매매시장 아님)
출처URL: https://namu.wiki/w/3기 신도시
최근확인일: 2026-07-05
비고: 2.4대책 추가분</description>
      <Point><coordinates>126.9,37.32,0</coordinates></Point>
    </Placemark>
    <Placemark>
      <name>화성진안 공공주택지구</name>
      <description>사업유형: 신도시(공공주택지구)
근거법: 공공주택특별법
시도: 경기
시군구: 화성시
읍면동: 진안동 일원
현재단계: 지구지정
단계상세: 상세 확인 필요
지연여부: N
예타상태: 해당없음(공공주택특별법 지구지정, 예타 별도 절차)
대략가격대: 해당없음(공공분양, 매매시장 아님)
출처URL: https://namu.wiki/w/3기 신도시
최근확인일: 2026-07-05
비고: 2.4대책 추가분</description>
      <Point><coordinates>126.99,37.22,0</coordinates></Point>
    </Placemark>
    <Placemark>
      <name>GTX-A (운정중앙~동탄)</name>
      <description>사업유형: 광역교통
근거법: 광역교통법
시도: 경기·서울
시군구: 파주~화성
현재단계: 부분개통
단계상세: 남측(수서~동탄) 2024.3 북측(운정중앙~서울역) 2024.12 개통 서울~수서 직결 2026 예정 삼성역 2027~28 창릉역 2030
지연여부: Y(삼성역 공사 지연)
예타상태: 통과
대략가격대: 해당없음(인프라사업, 매물 아님)
출처URL: https://www.news1.kr/realestate/general/6155273
최근확인일: 2026-07-05
비고: 대표좌표=삼성역</description>
      <Point><coordinates>127.06,37.508,0</coordinates></Point>
    </Placemark>
    <Placemark>
      <name>GTX-B (인천대입구~마석)</name>
      <description>사업유형: 광역교통
근거법: 광역교통법
시도: 인천·서울·경기
시군구: 인천~남양주
현재단계: 착공
단계상세: 공정 진행 중
지연여부: N
예타상태: 통과
대략가격대: 해당없음(인프라사업, 매물 아님)
출처URL: https://www.news1.kr/realestate/general/6155273
최근확인일: 2026-07-05
비고: 대표좌표=서울역 인근</description>
      <Point><coordinates>126.978,37.566,0</coordinates></Point>
    </Placemark>
    <Placemark>
      <name>GTX-C (덕정~수원)</name>
      <description>사업유형: 광역교통
근거법: 광역교통법
시도: 경기·서울
시군구: 양주~수원
현재단계: 착공
단계상세: 2026.4.30 실착공(중재 후) 완공 2031 이후 전망 청량리 변전소 등 현안
지연여부: Y(당초 2028→2031+ 지연)
예타상태: 통과
대략가격대: 해당없음(인프라사업, 매물 아님)
출처URL: https://namu.wiki/w/수도권 광역급행철도 C선
최근확인일: 2026-07-05
비고: 대표좌표=청량리역</description>
      <Point><coordinates>127.048,37.58,0</coordinates></Point>
    </Placemark>
    <Placemark>
      <name>분당 선도지구(양지·샛별·시범·목련 등)</name>
      <description>사업유형: 재건축(노후계획도시)
근거법: 노후계획도시특별법
시도: 경기
시군구: 성남시 분당구
현재단계: 특별정비계획입안
단계상세: 4곳 입안제안서 제출(2025 말) 용적률 평균 360% 안팎
지연여부: N
예타상태: 해당없음(공공주택특별법 지구지정, 예타 별도 절차)
대략가격대: 확인필요(조사 범위 밖)
출처URL: https://www.housingherald.co.kr/news/articleView.html?idxno=60035
최근확인일: 2026-07-05
비고: 선도지구 1차</description>
      <Point><coordinates>127.12,37.38,0</coordinates></Point>
    </Placemark>
    <Placemark>
      <name>일산 선도지구(백송·후곡·강촌·정발)</name>
      <description>사업유형: 재건축(노후계획도시)
근거법: 노후계획도시특별법
시도: 경기
시군구: 고양시 일산동구·서구
현재단계: 특별정비계획입안
단계상세: 구역지정 2026으로 이월 백송·후곡 자문 진행
지연여부: Y(구역지정 이월)
예타상태: 해당없음(공공주택특별법 지구지정, 예타 별도 절차)
대략가격대: 확인필요(조사 범위 밖)
출처URL: https://www.housingherald.co.kr/news/articleView.html?idxno=60035
최근확인일: 2026-07-05</description>
      <Point><coordinates>126.77,37.67,0</coordinates></Point>
    </Placemark>
    <Placemark>
      <name>평촌 선도지구(귀인·민백)</name>
      <description>사업유형: 재건축(노후계획도시)
근거법: 노후계획도시특별법
시도: 경기
시군구: 안양시 동안구
현재단계: 특별정비계획입안
단계상세: 2곳 입안제안서 제출 민백 용적률 330%선
지연여부: N
예타상태: 해당없음(공공주택특별법 지구지정, 예타 별도 절차)
대략가격대: 확인필요(조사 범위 밖)
출처URL: https://www.housingherald.co.kr/news/articleView.html?idxno=60035
최근확인일: 2026-07-05</description>
      <Point><coordinates>126.96,37.39,0</coordinates></Point>
    </Placemark>
    <Placemark>
      <name>중동 선도지구(은하마을·반달마을A)</name>
      <description>사업유형: 재건축(노후계획도시)
근거법: 노후계획도시특별법
시도: 경기
시군구: 부천시 원미구
읍면동: 중동
현재단계: 특별정비구역지정
단계상세: 은하마을 특별정비구역 지정·고시 완료(2026.6) 반달A는 LH 협약 후 연내 지정 추진
지연여부: N
예타상태: 해당없음(공공주택특별법 지구지정, 예타 별도 절차)
대략가격대: 확인필요(조사 범위 밖)
출처URL: https://www.etoday.co.kr/news/view/2593709
최근확인일: 2026-07-05
비고: 은하마을=4개 단지 통합</description>
      <Point><coordinates>126.76,37.5,0</coordinates></Point>
    </Placemark>
    <Placemark>
      <name>산본 선도지구(9-2구역 등)</name>
      <description>사업유형: 재건축(노후계획도시)
근거법: 노후계획도시특별법
시도: 경기
시군구: 군포시
읍면동: 산본동
현재단계: 사업시행자지정
단계상세: 9-2구역 1기 신도시 최초 특별정비구역 지정(2025.12)+LH 사업시행자 선정(2026.3)+사업시행약정 체결
지연여부: N
예타상태: 해당없음(공공주택특별법 지구지정, 예타 별도 절차)
대략가격대: 확인필요(조사 범위 밖)
출처URL: https://www.etoday.co.kr/news/view/2593709
최근확인일: 2026-07-05
비고: 1기 신도시 전체 선행 사례</description>
      <Point><coordinates>126.93,37.36,0</coordinates></Point>
    </Placemark>
    <Placemark>
      <name>현대3단지</name>
      <description>사업유형: 재건축(도시정비법)
근거법: 도시정비법
시도: 인천
시군구: 부평구
읍면동: 산곡동
현재단계: 추진위승인
단계상세: 인천시 추정분담금 정보시스템(2026.7 기준) 조회 결과
지연여부: N
예타상태: 해당없음(도시정비법 조합사업, 예타 비대상)
대략가격대: 2억~3억(추정)
출처URL: https://renewal.incheon.go.kr/ires/program/0000-0011-0025/program/business/search.do
최근확인일: 2026-07-18
비고: 대표지번: 산곡동 370-399. 좌표는 동단위 근사치. 가격대는 단계기반 추정치, 실제 시세 미검증</description>
      <Point><coordinates>126.704434,37.489886,0</coordinates></Point>
    </Placemark>
    <Placemark>
      <name>한양아파트2단지</name>
      <description>사업유형: 재건축(도시정비법)
근거법: 도시정비법
시도: 인천
시군구: 부평구
읍면동: 산곡동
현재단계: 추진위승인
단계상세: 인천시 추정분담금 정보시스템(2026.7 기준) 조회 결과
지연여부: N
예타상태: 해당없음(도시정비법 조합사업, 예타 비대상)
대략가격대: 2억~3억(추정)
출처URL: https://renewal.incheon.go.kr/ires/program/0000-0011-0025/program/business/search.do
최근확인일: 2026-07-18
비고: 대표지번: 산곡동 182. 좌표는 동단위 근사치. 가격대는 단계기반 추정치, 실제 시세 미검증</description>
      <Point><coordinates>126.701273,37.503595,0</coordinates></Point>
    </Placemark>
    <Placemark>
      <name>하하골마을(현지개량)</name>
      <description>사업유형: 주거환경개선
근거법: 도시정비법(현지개량방식 주거환경개선사업)+도시재생법(국비 마중물, 도시재생 뉴딜 인정사업)
시도: 인천
시군구: 부평구
읍면동: 부평동
현재단계: 준공
단계상세: 인천시 추정분담금 정보시스템(2026.7 기준) 조회 결과 → 원문(iurc.or.kr) 확인 결과 실질 사업내용은 도시재생 뉴딜(인정사업)로 정정
지연여부: N
예타상태: 해당없음(도시재생 뉴딜 인정사업, 국비 마중물사업 예타 비대상)
대략가격대: 해당없음(공공시설 건립사업, 매물 아님)
출처URL: https://www.iurc.or.kr/bbs/board.php?bo_table=b_31&amp;wr_id=40
최근확인일: 2026-07-19
비고: 대표지번: 부평동 767-27 일원(총면적 758㎡, 백운역~동수역 사이. 인천시 추정분담금시스템은 767-23으로 표기해 지번이 두 원문간 약간 다름). 좌표는 역간 근사치, 정확한 필지 좌표 아님. 사업내용은 도로개선·공영주차장·커뮤니티센터·작은도서관 등 공공시설 건립이며 신축 분양주택 공급이 없어 매물/실거래 자체가 존재하지 않음 — 투자 대상으로 보기 부적절</description>
      <Point><coordinates>126.712842,37.485805,0</coordinates></Point>
    </Placemark>
    <Placemark>
      <name>하정초동측(십정6) / 정비구역후보지(23년 2차)</name>
      <description>사업유형: 재개발
근거법: 도시정비법
시도: 인천
시군구: 부평구
읍면동: 십정동
현재단계: 정비구역지정
단계상세: 인천시 추정분담금 정보시스템(2026.7 기준) 조회 결과
지연여부: N
예타상태: 해당없음(도시정비법 조합사업, 예타 비대상)
대략가격대: 5천만원대~1억(추정)
출처URL: https://renewal.incheon.go.kr/ires/program/0000-0011-0025/program/business/search.do
최근확인일: 2026-07-18
비고: 대표지번: 십정동 397번지 일원. 좌표는 동단위 근사치. 가격대는 단계기반 추정치, 실제 시세 미검증</description>
      <Point><coordinates>126.700174,37.474092,0</coordinates></Point>
    </Placemark>
    <Placemark>
      <name>청천대진아파트구역</name>
      <description>사업유형: 재건축(도시정비법)
근거법: 도시정비법
시도: 인천
시군구: 부평구
읍면동: 청천2동
현재단계: 사업시행인가
단계상세: 인천시 추정분담금 정보시스템(2026.7 기준) 조회 결과
지연여부: N
예타상태: 해당없음(도시정비법 조합사업, 예타 비대상)
대략가격대: 3억+(추정)
출처URL: https://renewal.incheon.go.kr/ires/program/0000-0011-0025/program/business/search.do
최근확인일: 2026-07-18
비고: 대표지번: 청천2동 236번지 일원. 좌표는 동단위 근사치. 가격대는 단계기반 추정치, 실제 시세 미검증</description>
      <Point><coordinates>126.715252,37.50505,0</coordinates></Point>
    </Placemark>
    <Placemark>
      <name>청천4구역 / 정비구역후보지(23년 2차)</name>
      <description>사업유형: 재개발
근거법: 도시정비법
시도: 인천
시군구: 부평구
읍면동: 청천동
현재단계: 추진위승인
단계상세: 인천시 추정분담금 정보시스템(2026.7 기준) 조회 결과
지연여부: N
예타상태: 해당없음(도시정비법 조합사업, 예타 비대상)
대략가격대: 5천만원대~1억(추정)
출처URL: https://renewal.incheon.go.kr/ires/program/0000-0011-0025/program/business/search.do
최근확인일: 2026-07-18
비고: 대표지번: 청천동 16-8번지 일원. 좌표는 동단위 근사치. 가격대는 단계기반 추정치, 실제 시세 미검증</description>
      <Point><coordinates>126.703346,37.517966,0</coordinates></Point>
    </Placemark>
    <Placemark>
      <name>진흥·동남</name>
      <description>사업유형: 재건축(도시정비법)
근거법: 도시정비법
시도: 인천
시군구: 부평구
읍면동: 산곡동
현재단계: 추진위승인
단계상세: 인천시 추정분담금 정보시스템(2026.7 기준) 조회 결과
지연여부: N
예타상태: 해당없음(도시정비법 조합사업, 예타 비대상)
대략가격대: 2억~3억(추정)
출처URL: https://renewal.incheon.go.kr/ires/program/0000-0011-0025/program/business/search.do
최근확인일: 2026-07-18
비고: 대표지번: 산곡동 38-26. 좌표는 동단위 근사치. 가격대는 단계기반 추정치, 실제 시세 미검증</description>
      <Point><coordinates>126.702078,37.512473,0</coordinates></Point>
    </Placemark>
    <Placemark>
      <name>일신동(현지개량)</name>
      <description>사업유형: 주거환경개선
근거법: 도시정비법
시도: 인천
시군구: 부평구
읍면동: 일신동
현재단계: 정비구역지정
단계상세: 인천시 추정분담금 정보시스템(2026.7 기준) 조회 결과
지연여부: N
예타상태: 해당없음(도시정비법 조합사업, 예타 비대상)
대략가격대: 확인필요(하하골마을과 동일 유형, 도시재생사업 여부 원문 미확인)
출처URL: https://renewal.incheon.go.kr/ires/program/0000-0011-0025/program/business/search.do
최근확인일: 2026-07-19
비고: 대표지번: 일신동 106-29. 기존 좌표(37.5205,126.7051)가 일신동 행정경계 바깥이라 동 중심좌표로 정정(필지 단위 아님). '하하골마을(현지개량)'과 동일한 분류라 실제로는 도시재생 뉴딜사업(공공시설 건립, 매물 없음)일 가능성 있으나 원문 미확인 — 가격대는 확인 전까지 미산정</description>
      <Point><coordinates>126.742738,37.484671,0</coordinates></Point>
    </Placemark>
    <Placemark>
      <name>십정초주변(십정1) / 정비구역후보지(23년 2차)</name>
      <description>사업유형: 재개발
근거법: 도시정비법
시도: 인천
시군구: 부평구
읍면동: 십정동
현재단계: 정비구역지정
단계상세: 인천시 추정분담금 정보시스템(2026.7 기준) 조회 결과
지연여부: N
예타상태: 해당없음(도시정비법 조합사업, 예타 비대상)
대략가격대: 5천만원대~1억(추정)
출처URL: https://renewal.incheon.go.kr/ires/program/0000-0011-0025/program/business/search.do
최근확인일: 2026-07-18
비고: 대표지번: 십정동 355-1번지 일원. 좌표는 동단위 근사치. 가격대는 단계기반 추정치, 실제 시세 미검증</description>
      <Point><coordinates>126.695519,37.472361,0</coordinates></Point>
    </Placemark>
    <Placemark>
      <name>십정5구역</name>
      <description>사업유형: 재개발
근거법: 도시정비법
시도: 인천
시군구: 부평구
읍면동: 십정동
현재단계: 관리처분
단계상세: 인천시 추정분담금 정보시스템(2026.7 기준) 조회 결과
지연여부: N
예타상태: 해당없음(도시정비법 조합사업, 예타 비대상)
대략가격대: 2억~3억(추정)
출처URL: https://renewal.incheon.go.kr/ires/program/0000-0011-0025/program/business/search.do
최근확인일: 2026-07-18
비고: 대표지번: 십정동 460-22번지 일원. 좌표는 동단위 근사치. 가격대는 단계기반 추정치, 실제 시세 미검증</description>
      <Point><coordinates>126.696301,37.468684,0</coordinates></Point>
    </Placemark>
    <Placemark>
      <name>십정4구역</name>
      <description>사업유형: 재개발
근거법: 도시정비법
시도: 인천
시군구: 부평구
읍면동: 십정동
현재단계: 관리처분
단계상세: 인천시 추정분담금 정보시스템(2026.7 기준) 조회 결과
지연여부: N
예타상태: 해당없음(도시정비법 조합사업, 예타 비대상)
대략가격대: 2억~3억(추정)
출처URL: https://renewal.incheon.go.kr/ires/program/0000-0011-0025/program/business/search.do
최근확인일: 2026-07-18
비고: 대표지번: 십정동 166-1번지 일원. 좌표는 동단위 근사치. 가격대는 단계기반 추정치, 실제 시세 미검증</description>
      <Point><coordinates>126.699371,37.480631,0</coordinates></Point>
    </Placemark>
    <Placemark>
      <name>십정3구역</name>
      <description>사업유형: 재개발
근거법: 도시정비법
시도: 인천
시군구: 부평구
읍면동: 십정동
현재단계: 관리처분
단계상세: 인천시 추정분담금 정보시스템(2026.7 기준) 조회 결과
지연여부: N
예타상태: 해당없음(도시정비법 조합사업, 예타 비대상)
대략가격대: 2억~3억(추정)
출처URL: https://renewal.incheon.go.kr/ires/program/0000-0011-0025/program/business/search.do
최근확인일: 2026-07-18
비고: 대표지번: 십정동 432번지 일원. 좌표는 동단위 근사치. 가격대는 단계기반 추정치, 실제 시세 미검증</description>
      <Point><coordinates>126.702019,37.476795,0</coordinates></Point>
    </Placemark>
    <Placemark>
      <name>신촌구역</name>
      <description>사업유형: 재개발
근거법: 도시정비법
시도: 인천
시군구: 부평구
읍면동: 부평동
현재단계: 관리처분
단계상세: 인천시 추정분담금 정보시스템(2026.7 기준) 조회 결과
지연여부: N
예타상태: 해당없음(도시정비법 조합사업, 예타 비대상)
대략가격대: 2억~3억(추정)
출처URL: https://renewal.incheon.go.kr/ires/program/0000-0011-0025/program/business/search.do
최근확인일: 2026-07-18
비고: 대표지번: 부평동 283-66번지 일원. 좌표는 동단위 근사치. 가격대는 단계기반 추정치, 실제 시세 미검증</description>
      <Point><coordinates>126.710288,37.487693,0</coordinates></Point>
    </Placemark>
    <Placemark>
      <name>삼산대보아파트구역</name>
      <description>사업유형: 재건축(도시정비법)
근거법: 도시정비법
시도: 인천
시군구: 부평구
읍면동: 삼산동
현재단계: 착공
단계상세: 인천시 추정분담금 정보시스템(2026.7 기준) 조회 결과
지연여부: N
예타상태: 해당없음(도시정비법 조합사업, 예타 비대상)
대략가격대: 3억+(추정)
출처URL: https://renewal.incheon.go.kr/ires/program/0000-0011-0025/program/business/search.do
최근확인일: 2026-07-18
비고: 대표지번: 삼산동 191번지 일원. 좌표는 동단위 근사치. 가격대는 단계기반 추정치, 실제 시세 미검증</description>
      <Point><coordinates>126.736471,37.518333,0</coordinates></Point>
    </Placemark>
    <Placemark>
      <name>산곡재원아파트구역</name>
      <description>사업유형: 재건축(도시정비법)
근거법: 도시정비법
시도: 인천
시군구: 부평구
읍면동: 산곡1동
현재단계: 관리처분
단계상세: 인천시 추정분담금 정보시스템(2026.7 기준) 조회 결과
지연여부: N
예타상태: 해당없음(도시정비법 조합사업, 예타 비대상)
대략가격대: 3억+(추정)
출처URL: https://renewal.incheon.go.kr/ires/program/0000-0011-0025/program/business/search.do
최근확인일: 2026-07-18
비고: 대표지번: 산곡1동 180-329번지 일원. 좌표는 동단위 근사치. 가격대는 단계기반 추정치, 실제 시세 미검증</description>
      <Point><coordinates>126.696806,37.503301,0</coordinates></Point>
    </Placemark>
    <Placemark>
      <name>산곡구역</name>
      <description>사업유형: 재개발
근거법: 도시정비법
시도: 인천
시군구: 부평구
읍면동: 산곡동
현재단계: 착공
단계상세: 인천시 추정분담금 정보시스템(2026.7 기준) 조회 결과
지연여부: N
예타상태: 해당없음(도시정비법 조합사업, 예타 비대상)
대략가격대: 2억~3억(추정)
출처URL: https://renewal.incheon.go.kr/ires/program/0000-0011-0025/program/business/search.do
최근확인일: 2026-07-18
비고: 대표지번: 산곡동 87-903번지 일원. 좌표는 동단위 근사치. 가격대는 단계기반 추정치, 실제 시세 미검증</description>
      <Point><coordinates>126.702068,37.506496,0</coordinates></Point>
    </Placemark>
    <Placemark>
      <name>산곡7구역</name>
      <description>사업유형: 재개발
근거법: 도시정비법
시도: 인천
시군구: 부평구
읍면동: 산곡동
현재단계: 사업시행인가
단계상세: 인천시 추정분담금 정보시스템(2026.7 기준) 조회 결과
지연여부: N
예타상태: 해당없음(도시정비법 조합사업, 예타 비대상)
대략가격대: 1억~2억(추정)
출처URL: https://renewal.incheon.go.kr/ires/program/0000-0011-0025/program/business/search.do
최근확인일: 2026-07-18
비고: 대표지번: 산곡동 225-2번지 일원. 좌표는 동단위 근사치. 가격대는 단계기반 추정치, 실제 시세 미검증</description>
      <Point><coordinates>126.703735,37.497014,0</coordinates></Point>
    </Placemark>
    <Placemark>
      <name>산곡6구역</name>
      <description>사업유형: 재개발
근거법: 도시정비법
시도: 인천
시군구: 부평구
읍면동: 산곡동
현재단계: 착공
단계상세: 인천시 추정분담금 정보시스템(2026.7 기준) 조회 결과
지연여부: N
예타상태: 해당없음(도시정비법 조합사업, 예타 비대상)
대략가격대: 2억~3억(추정)
출처URL: https://renewal.incheon.go.kr/ires/program/0000-0011-0025/program/business/search.do
최근확인일: 2026-07-19
비고: 대표지번: 산곡동 10번지 일원. 카카오 지오코딩 시도했으나 '산곡동 10' 주소 매칭 실패(지번 통폐합 추정) — 다른 산곡동 사업들과 달리 여전히 동단위 근사치. 가격대는 단계기반 추정치, 실제 시세 미검증</description>
      <Point><coordinates>126.7033,37.5122,0</coordinates></Point>
    </Placemark>
    <Placemark>
      <name>산곡5구역</name>
      <description>사업유형: 재개발
근거법: 도시정비법
시도: 인천
시군구: 부평구
읍면동: 산곡동
현재단계: 사업시행인가
단계상세: 인천시 추정분담금 정보시스템(2026.7 기준) 조회 결과
지연여부: N
예타상태: 해당없음(도시정비법 조합사업, 예타 비대상)
대략가격대: 1억~2억(추정)
출처URL: https://renewal.incheon.go.kr/ires/program/0000-0011-0025/program/business/search.do
최근확인일: 2026-07-18
비고: 대표지번: 산곡동 370-58번지 일원. 좌표는 동단위 근사치. 가격대는 단계기반 추정치, 실제 시세 미검증</description>
      <Point><coordinates>126.704259,37.490943,0</coordinates></Point>
    </Placemark>
    <Placemark>
      <name>산곡3구역</name>
      <description>사업유형: 재개발
근거법: 도시정비법
시도: 인천
시군구: 부평구
읍면동: 산곡동
현재단계: 조합설립인가
단계상세: 인천시 추정분담금 정보시스템(2026.7 기준) 조회 결과
지연여부: N
예타상태: 해당없음(도시정비법 조합사업, 예타 비대상)
대략가격대: 1억~2억(추정)
출처URL: https://renewal.incheon.go.kr/ires/program/0000-0011-0025/program/business/search.do
최근확인일: 2026-07-18
비고: 대표지번: 산곡동 180-190번지 일원. 좌표는 동단위 근사치. 가격대는 단계기반 추정치, 실제 시세 미검증</description>
      <Point><coordinates>126.69785,37.502864,0</coordinates></Point>
    </Placemark>
    <Placemark>
      <name>부흥초동측 / 정비구역후보지(23년 2차)</name>
      <description>사업유형: 재개발
근거법: 도시정비법
시도: 인천
시군구: 부평구
읍면동: 부평동
현재단계: 정비구역지정
단계상세: 인천시 추정분담금 정보시스템(2026.7 기준) 조회 결과
지연여부: N
예타상태: 해당없음(도시정비법 조합사업, 예타 비대상)
대략가격대: 5천만원대~1억(추정)
출처URL: https://renewal.incheon.go.kr/ires/program/0000-0011-0025/program/business/search.do
최근확인일: 2026-07-18
비고: 대표지번: 부평동 156-1번지 일원. 좌표는 동단위 근사치. 가격대는 단계기반 추정치, 실제 시세 미검증</description>
      <Point><coordinates>126.733321,37.497267,0</coordinates></Point>
    </Placemark>
    <Placemark>
      <name>부평현대1단지</name>
      <description>사업유형: 재건축(도시정비법)
근거법: 도시정비법
시도: 인천
시군구: 부평구
읍면동: 산곡동
현재단계: 조합설립인가
단계상세: 인천시 추정분담금 정보시스템(2026.7 기준) 조회 결과
지연여부: N
예타상태: 해당없음(도시정비법 조합사업, 예타 비대상)
대략가격대: 2억~3억(추정)
출처URL: https://renewal.incheon.go.kr/ires/program/0000-0011-0025/program/business/search.do
최근확인일: 2026-07-18
비고: 대표지번: 산곡동 307번지 9 일원. 좌표는 동단위 근사치. 가격대는 단계기반 추정치, 실제 시세 미검증</description>
      <Point><coordinates>126.709604,37.488862,0</coordinates></Point>
    </Placemark>
    <Placemark>
      <name>부평4구역</name>
      <description>사업유형: 재개발
근거법: 도시정비법
시도: 인천
시군구: 부평구
읍면동: 부평동
현재단계: 착공
단계상세: 인천시 추정분담금 정보시스템(2026.7 기준) 조회 결과
지연여부: N
예타상태: 해당없음(도시정비법 조합사업, 예타 비대상)
대략가격대: 2억~3억(추정)
출처URL: https://renewal.incheon.go.kr/ires/program/0000-0011-0025/program/business/search.do
최근확인일: 2026-07-18
비고: 대표지번: 부평동 665-2번지 일원. 좌표는 동단위 근사치. 가격대는 단계기반 추정치, 실제 시세 미검증</description>
      <Point><coordinates>126.72273,37.48371,0</coordinates></Point>
    </Placemark>
    <Placemark>
      <name>부평2구역</name>
      <description>사업유형: 재개발
근거법: 도시정비법
시도: 인천
시군구: 부평구
읍면동: 부평2동
현재단계: 착공
단계상세: 인천시 추정분담금 정보시스템(2026.7 기준) 조회 결과
지연여부: N
예타상태: 해당없음(도시정비법 조합사업, 예타 비대상)
대략가격대: 2억~3억(추정)
출처URL: https://renewal.incheon.go.kr/ires/program/0000-0011-0025/program/business/search.do
최근확인일: 2026-07-18
비고: 대표지번: 부평2동 760-700번지 일원. 좌표는 동단위 근사치. 가격대는 단계기반 추정치, 실제 시세 미검증</description>
      <Point><coordinates>126.715551,37.486635,0</coordinates></Point>
    </Placemark>
    <Placemark>
      <name>부광초교서측 / 정비구역후보지(23년 2차)</name>
      <description>사업유형: 재개발
근거법: 도시정비법
시도: 인천
시군구: 부평구
읍면동: 부개동
현재단계: 정비구역지정
단계상세: 인천시 추정분담금 정보시스템(2026.7 기준) 조회 결과
지연여부: N
예타상태: 해당없음(도시정비법 조합사업, 예타 비대상)
대략가격대: 5천만원대~1억(추정)
출처URL: https://renewal.incheon.go.kr/ires/program/0000-0011-0025/program/business/search.do
최근확인일: 2026-07-18
비고: 대표지번: 부개동 65-1번지 일원. 좌표는 동단위 근사치. 가격대는 단계기반 추정치, 실제 시세 미검증</description>
      <Point><coordinates>126.735495,37.499434,0</coordinates></Point>
    </Placemark>
    <Placemark>
      <name>부개5구역</name>
      <description>사업유형: 재개발
근거법: 도시정비법
시도: 인천
시군구: 부평구
읍면동: 부개1동
현재단계: 조합설립인가
단계상세: 인천시 추정분담금 정보시스템(2026.7 기준) 조회 결과
지연여부: N
예타상태: 해당없음(도시정비법 조합사업, 예타 비대상)
대략가격대: 1억~2억(추정)
출처URL: https://renewal.incheon.go.kr/ires/program/0000-0011-0025/program/business/search.do
최근확인일: 2026-07-18
비고: 대표지번: 부개1동 381-15번지 일원. 좌표는 동단위 근사치. 가격대는 단계기반 추정치, 실제 시세 미검증</description>
      <Point><coordinates>126.740398,37.483771,0</coordinates></Point>
    </Placemark>
    <Placemark>
      <name>부개4구역</name>
      <description>사업유형: 재개발
근거법: 도시정비법
시도: 인천
시군구: 부평구
읍면동: 부개동
현재단계: 착공
단계상세: 인천시 추정분담금 정보시스템(2026.7 기준) 조회 결과
지연여부: N
예타상태: 해당없음(도시정비법 조합사업, 예타 비대상)
대략가격대: 2억~3억(추정)
출처URL: https://renewal.incheon.go.kr/ires/program/0000-0011-0025/program/business/search.do
최근확인일: 2026-07-18
비고: 대표지번: 부개동 13-5번지 일원. 좌표는 동단위 근사치. 가격대는 단계기반 추정치, 실제 시세 미검증</description>
      <Point><coordinates>126.735981,37.503342,0</coordinates></Point>
    </Placemark>
    <Placemark>
      <name>동암중서측 / 정비구역후보지(23년 1차)</name>
      <description>사업유형: 재개발
근거법: 도시정비법
시도: 인천
시군구: 부평구
읍면동: 십정동
현재단계: 정비구역지정
단계상세: 인천시 추정분담금 정보시스템(2026.7 기준) 조회 결과
지연여부: N
예타상태: 해당없음(도시정비법 조합사업, 예타 비대상)
대략가격대: 5천만원대~1억(추정)
출처URL: https://renewal.incheon.go.kr/ires/program/0000-0011-0025/program/business/search.do
최근확인일: 2026-07-18
비고: 대표지번: 십정동 499-1번지 일원. 좌표는 동단위 근사치. 가격대는 단계기반 추정치, 실제 시세 미검증</description>
      <Point><coordinates>126.704591,37.473392,0</coordinates></Point>
    </Placemark>
    <Placemark>
      <name>동수초북측 / 정비구역후보지(23년 2차)</name>
      <description>사업유형: 재개발
근거법: 도시정비법
시도: 인천
시군구: 부평구
읍면동: 부평동
현재단계: 정비구역지정
단계상세: 인천시 추정분담금 정보시스템(2026.7 기준) 조회 결과
지연여부: N
예타상태: 해당없음(도시정비법 조합사업, 예타 비대상)
대략가격대: 5천만원대~1억(추정)
출처URL: https://renewal.incheon.go.kr/ires/program/0000-0011-0025/program/business/search.do
최근확인일: 2026-07-18
비고: 대표지번: 부평동 623-1번지 일원. 좌표는 동단위 근사치. 가격대는 단계기반 추정치, 실제 시세 미검증</description>
      <Point><coordinates>126.731175,37.486449,0</coordinates></Point>
    </Placemark>
    <Placemark>
      <name>동소정사거리북동측 / 정비구역후보지(23년 2차)</name>
      <description>사업유형: 재개발
근거법: 도시정비법
시도: 인천
시군구: 부평구
읍면동: 부평동
현재단계: 정비구역지정
단계상세: 인천시 추정분담금 정보시스템(2026.7 기준) 조회 결과
지연여부: N
예타상태: 해당없음(도시정비법 조합사업, 예타 비대상)
대략가격대: 5천만원대~1억(추정)
출처URL: https://renewal.incheon.go.kr/ires/program/0000-0011-0025/program/business/search.do
최근확인일: 2026-07-18
비고: 대표지번: 부평동 614번지 일원. 좌표는 동단위 근사치. 가격대는 단계기반 추정치, 실제 시세 미검증</description>
      <Point><coordinates>126.731106,37.488794,0</coordinates></Point>
    </Placemark>
    <Placemark>
      <name>갈산동64-12</name>
      <description>사업유형: 재개발
근거법: 도시정비법
시도: 인천
시군구: 부평구
읍면동: 갈산동
현재단계: 추진위승인
단계상세: 인천시 추정분담금 정보시스템(2026.7 기준) 조회 결과
지연여부: N
예타상태: 해당없음(도시정비법 조합사업, 예타 비대상)
대략가격대: 5천만원대~1억(추정)
출처URL: https://renewal.incheon.go.kr/ires/program/0000-0011-0025/program/business/search.do
최근확인일: 2026-07-18
비고: 대표지번: 갈산동 64-12번지 일원. 좌표는 동단위 근사치. 가격대는 단계기반 추정치, 실제 시세 미검증</description>
      <Point><coordinates>126.72808,37.519098,0</coordinates></Point>
    </Placemark>
    <Placemark>
      <name>갈산1구역</name>
      <description>사업유형: 재개발
근거법: 도시정비법
시도: 인천
시군구: 부평구
읍면동: 갈산동
현재단계: 관리처분
단계상세: 인천시 추정분담금 정보시스템(2026.7 기준) 조회 결과
지연여부: N
예타상태: 해당없음(도시정비법 조합사업, 예타 비대상)
대략가격대: 2억~3억(추정)
출처URL: https://renewal.incheon.go.kr/ires/program/0000-0011-0025/program/business/search.do
최근확인일: 2026-07-18
비고: 대표지번: 갈산동 112-39번지 일원. 좌표는 동단위 근사치. 가격대는 단계기반 추정치, 실제 시세 미검증</description>
      <Point><coordinates>126.727906,37.521651,0</coordinates></Point>
    </Placemark>
  </Document>
</kml>
